NORAD_CAT_ID,OBJECT_NAME,OBJECT_TYPE,EPOCH,MEAN_MOTION,ECCENTRICITY,INCLINATION,RA_OF_ASC_NODE,ARG_OF_PERICENTER,MEAN_ANOMALY,BSTAR,MEAN_MOTION_DOT,MEAN_MOTION_DDOT,TLE_LINE0,TLE_LINE1,TLE_LINE2,SEMIMAJOR_AXIS,PERIOD,APOGEE,PERIGEE,DECAYED
52624.0,STARLINK-4009,PAYLOAD,2023-06-11 12:37:57,15.08835423,0.000125,53.2174,87.9913,88.9153,271.1983,0.00021542,3.142e-05,0.0,0 STARLINK-4009,1 52624U 22052AC  23162.52635859  .00003142  00000-0  21542-3 0  9994,2 52624  53.2174  87.9913 0001250  88.9153 271.1983 15.08835423 59691,6917.894,95.438,540.624,538.895,0.0
52624.0,STARLINK-4009,PAYLOAD,2023-06-11 18:59:30,15.08837998,0.0001214,53.2178,86.8025,84.7907,275.3224,7.655e-05,9.31e-06,0.0,0 STARLINK-4009,1 52624U 22052AC  23162.79131970  .00000931  00000-0  76550-4 0  9991,2 52624  53.2178  86.8025 0001214  84.7907 275.3224 15.08837998 59736,6917.887,95.438,540.591,538.912,0.0
52624.0,STARLINK-4009,PAYLOAD,2023-06-12 01:21:02,15.08848205,0.0001329,53.2182,85.6129,89.9782,270.1363,6.7502e-05,7.87e-06,0.0,0 STARLINK-4009,1 52624U 22052AC  23163.05627370  .00000787  00000-0  67502-4 0  9991,2 52624  53.2182  85.6129 0001329  89.9782 270.1363 15.08848205 59772,6917.855,95.437,540.64,538.801,0.0
52624.0,STARLINK-4009,PAYLOAD,2023-06-13 01:11:49,15.0883719,0.0001241,53.2167,81.1515,94.2299,265.8835,3.8482e-05,3.25e-06,0.0,0 STARLINK-4009,1 52624U 22052AC  23164.04988056  .00000325  00000-0  38482-4 0  9995,2 52624  53.2167  81.1515 0001241  94.2299 265.8835 15.08837190 60307,6917.889,95.438,540.612,538.895,0.0
52624.0,STARLINK-4009,PAYLOAD,2023-06-13 18:41:04,15.0883885,0.0001138,53.2175,77.8814,100.379,259.733,8.0807e-06,-1.59e-06,0.0,0 STARLINK-4009,1 52624U 22052AC  23164.77852100 -.00000159  00000-0  80807-5 0  9990,2 52624  53.2175  77.8814 0001138 100.3790 259.7330 15.08838850 60036,6917.884,95.438,540.536,538.962,0.0
52624.0,STARLINK-4009,PAYLOAD,2023-06-14 04:13:22,15.08847698,0.0001031,53.2175,76.0986,88.6669,271.4441,6.1601e-05,6.93e-06,0.0,0 STARLINK-4009,1 52624U 22052AC  23165.17595397  .00000693  00000-0  61601-4 0  9999,2 52624  53.2175  76.0986 0001031  88.6669 271.4441 15.08847698 60474,6917.857,95.437,540.435,539.009,0.0
52624.0,STARLINK-4009,PAYLOAD,2023-06-14 18:31:51,15.0883074,8.36e-05,53.2179,73.4192,111.5813,248.5268,-7.1051e-06,-4.01e-06,0.0,0 STARLINK-4009,1 52624U 22052AC  23165.77212804 -.00000401  00000-0 -71051-5 0  9994,2 52624  53.2179  73.4192 0000836 111.5813 248.5268 15.08830740 60569,6917.909,95.438,540.352,539.195,0.0
52624.0,STARLINK-4009,PAYLOAD,2023-06-15 02:28:47,15.08839275,9.28e-05,53.2184,71.9359,110.1353,249.9739,4.1106e-05,3.67e-06,0.0,0 STARLINK-4009,1 52624U 22052AC  23166.10332261  .00000367  00000-0  41106-4 0  9998,2 52624  53.2184  71.9359 0000928 110.1353 249.9739 15.08839275 60615,6917.883,95.438,540.39,539.106,0.0
52624.0,STARLINK-4009,PAYLOAD,2023-06-15 04:04:10,15.08839097,9.97e-05,53.2177,71.6383,109.5303,250.5797,5.8638e-05,6.46e-06,0.0,0 STARLINK-4009,1 52624U 22052AC  23166.16956271  .00000646  00000-0  58638-4 0  9995,2 52624  53.2177  71.6383 0000997 109.5303 250.5797 15.08839097 60247,6917.883,95.438,540.438,539.058,0.0
52624.0,STARLINK-4009,PAYLOAD,2023-06-16 10:16:29,15.0884739,9.38e-05,53.219,65.9877,86.9494,273.1606,4.2638e-05,3.91e-06,0.0,0 STARLINK-4009,1 52624U 22052AC  23167.42812016  .00000391  00000-0  42638-4 0  9993,2 52624  53.2190  65.9877 0000938  86.9494 273.1606 15.08847390 60818,6917.858,95.437,540.372,539.074,0.0
52624.0,STARLINK-4009,PAYLOAD,2023-06-16 16:38:02,15.08838733,0.000159,53.2171,64.8019,109.417,250.6994,0.00012821,1.753e-05,0.0,0 STARLINK-4009,1 52624U 22052AC  23167.69308506  .00001753  00000-0  12821-3 0  9999,2 52624  53.2171  64.8019 0001590 109.4170 250.6994 15.08838733 60473,6917.884,95.438,540.849,538.649,0.0
52624.0,STARLINK-4009,PAYLOAD,2023-06-17 10:07:18,15.08824764,0.0001337,53.2183,61.5266,81.3328,278.7815,-6.8062e-06,-3.96e-06,0.0,0 STARLINK-4009,1 52624U 22052AC  23168.42174118 -.00000396  00000-0 -68062-5 0  9995,2 52624  53.2183  61.5266 0001337  81.3328 278.7815 15.08824764 60962,6917.927,95.439,540.717,538.867,0.0
52624.0,STARLINK-4009,PAYLOAD,2023-06-17 16:28:50,15.08827299,0.0001218,53.2177,60.3386,74.0072,286.1054,-7.2605e-06,-4.03e-06,0.0,0 STARLINK-4009,1 52624U 22052AC  23168.68670116 -.00000403  00000-0 -72605-5 0  9999,2 52624  53.2177  60.3386 0001218  74.0072 286.1054 15.08827299 60625,6917.919,95.438,540.627,538.942,0.0
52624.0,STARLINK-4009,PAYLOAD,2023-06-17 22:50:23,15.08835505,9.81e-05,53.2175,59.1502,81.0994,279.0109,-8.0055e-05,-1.561e-05,0.0,0 STARLINK-4009,1 52624U 22052AC  23168.95165923 -.00001561  00000-0 -80055-4 0  9997,2 52624  53.2175  59.1502 0000981  81.0994 279.0109 15.08835505 61044,6917.894,95.438,540.438,539.08,0.0
52624.0,STARLINK-4009,PAYLOAD,2023-06-18 09:58:04,15.08845552,6.81e-05,53.2178,57.0677,83.0484,277.0586,6.6927e-06,-1.81e-06,0.0,0 STARLINK-4009,1 52624U 22052AC  23169.41533116 -.00000181  00000-0  66927-5 0  9991,2 52624  53.2178  57.0677 0000681  83.0484 277.0586 15.08845552 60735,6917.863,95.437,540.2,539.257,0.0
52624.0,STARLINK-4009,PAYLOAD,2023-06-18 19:30:23,15.08845901,8.63e-05,53.2177,55.2835,70.4453,289.6632,0.0002027,2.94e-05,0.0,0 STARLINK-4009,1 52624U 22052AC  23169.81276820  .00002940  00000-0  20270-3 0  9994,2 52624  53.2177  55.2835 0000863  70.4453 289.6632 15.08845901 61176,6917.862,95.437,540.324,539.13,0.0
52624.0,STARLINK-4009,PAYLOAD,2023-06-19 09:48:51,15.08855555,6.61e-05,53.217,52.6073,65.9492,294.1569,0.00028972,4.328e-05,0.0,0 STARLINK-4009,1 52624U 22052AC  23170.40892555  .00004328  00000-0  28972-3 0  9999,2 52624  53.2170  52.6073 0000661  65.9492 294.1569 15.08855555 60885,6917.833,95.437,540.155,539.241,0.0
52624.0,STARLINK-4009,PAYLOAD,2023-06-19 19:21:10,15.08845461,5.13e-05,53.2162,50.8233,135.133,224.9704,0.00028486,4.25e-05,0.0,0 STARLINK-4009,1 52624U 22052AC  23170.80636828  .00004250  00000-0  28486-3 0  9996,2 52624  53.2162  50.8233 0000513 135.1330 224.9704 15.08845461 60945,6917.864,95.437,540.084,539.374,0.0
52624.0,STARLINK-4009,PAYLOAD,2023-06-19 22:31:56,15.08841791,4.71e-05,53.2164,50.2297,75.4081,284.6963,0.00022832,3.348e-05,0.0,0 STARLINK-4009,1 52624U 22052AC  23170.93885144  .00003348  00000-0  22832-3 0  9993,2 52624  53.2164  50.2297 0000471  75.4081 284.6963 15.08841791 61340,6917.875,95.437,540.066,539.414,0.0
52624.0,STARLINK-4009,PAYLOAD,2023-06-20 11:15:01,15.08846389,7e-05,53.2166,47.8484,103.6768,256.4302,7.9909e-05,9.85e-06,0.0,0 STARLINK-4009,1 52624U 22052AC  23171.46876718  .00000985  00000-0  79909-4 0  9991,2 52624  53.2166  47.8484 0000700 103.6768 256.4302 15.08846389 61042,6917.861,95.437,540.21,539.242,0.0
52624.0,STARLINK-4009,PAYLOAD,2023-06-20 20:47:20,15.08843132,6.4e-05,53.2175,46.0649,82.321,277.7855,-1.9834e-05,-6.03e-06,0.0,0 STARLINK-4009,1 52624U 22052AC  23171.86621012 -.00000603  00000-0 -19834-4 0  9990,2 52624  53.2175  46.0649 0000640  82.3210 277.7855 15.08843132 61103,6917.871,95.437,540.179,539.293,0.0
52624.0,STARLINK-4009,PAYLOAD,2023-06-20 22:22:43,15.08850283,6.66e-05,53.2178,45.7681,72.6503,287.4562,-5.6448e-05,-1.186e-05,0.0,0 STARLINK-4009,1 52624U 22052AC  23171.93244673 -.00001186  00000-0 -56448-4 0  9991,2 52624  53.2178  45.7681 0000666  72.6503 287.4562 15.08850283 61112,6917.849,95.437,540.175,539.253,0.0
52624.0,STARLINK-4009,PAYLOAD,2023-06-21 19:02:44,15.08836555,7.98e-05,53.2184,41.9038,91.5957,268.5126,8.3992e-06,-1.54e-06,0.0,0 STARLINK-4009,1 52624U 22052AC  23172.79357247 -.00000154  00000-0  83992-5 0  9996,2 52624  53.2184  41.9038 0000798  91.5957 268.5126 15.08836555 61248,6917.891,95.438,540.308,539.204,0.0
52624.0,STARLINK-4009,PAYLOAD,2023-06-21 23:48:53,15.08843884,6.74e-05,53.2182,41.0095,78.821,281.2858,1.0338e-06,-2.71e-06,0.0,0 STARLINK-4009,1 52624U 22052AC  23172.99228793 -.00000271  00000-0  10338-5 0  9995,2 52624  53.2182  41.0095 0000674  78.8210 281.2858 15.08843884 61655,6917.869,95.437,540.2,539.267,0.0
52624.0,STARLINK-4009,PAYLOAD,2023-06-22 07:45:49,15.08837755,7.03e-05,53.2185,39.5233,80.0499,280.0572,-2.9189e-05,-7.52e-06,0.0,0 STARLINK-4009,1 52624U 22052AC  23173.32349301 -.00000752  00000-0 -29189-4 0  9990,2 52624  53.2185  39.5233 0000703  80.0499 280.0572 15.08837755 61707,6917.887,95.438,540.239,539.266,0.0
52624.0,STARLINK-4009,PAYLOAD,2023-06-23 01:15:03,15.08847623,6.92e-05,53.2184,36.2525,94.2034,265.9037,0.00014729,2.058e-05,0.0,0 STARLINK-4009,1 52624U 22052AC  23174.05212439  .00002058  00000-0  14729-3 0  9994,2 52624  53.2184  36.2525 0000692  94.2034 265.9037 15.08847623 61818,6917.857,95.437,540.201,539.243,0.0
52624.0,STARLINK-4009,PAYLOAD,2023-06-23 07:36:36,15.08842024,5.2e-05,53.2178,35.0622,84.2139,275.8913,0.00012519,1.706e-05,0.0,0 STARLINK-4009,1 52624U 22052AC  23174.31708820  .00001706  00000-0  12519-3 0  9991,2 52624  53.2178  35.0622 0000520  84.2139 275.8913 15.08842024 61858,6917.874,95.437,540.099,539.379,0.0
52624.0,STARLINK-4009,PAYLOAD,2023-06-24 07:27:24,15.08835311,7.7e-05,53.2187,30.6001,64.0498,296.0574,3.6547e-05,2.94e-06,0.0,0 STARLINK-4009,1 52624U 22052AC  23175.31069722  .00000294  00000-0  36547-4 0  9992,2 52624  53.2187  30.6001 0000770  64.0498 296.0574 15.08835311 62008,6917.895,95.438,540.292,539.227,0.0
52624.0,STARLINK-4009,PAYLOAD,2023-06-25 00:56:38,15.08844587,7.45e-05,53.218,27.329,76.7789,283.3287,6.3246e-05,7.19e-06,0.0,0 STARLINK-4009,1 52624U 22052AC  23176.03933228  .00000719  00000-0  63246-4 0  9991,2 52624  53.2180  27.3290 0000745  76.7789 283.3287 15.08844587 62116,6917.866,95.437,540.247,539.216,0.0
52624.0,STARLINK-4009,PAYLOAD,2023-06-26 07:08:57,15.08844297,4.03e-05,53.2164,21.6787,123.6406,236.4624,6.3319e-05,7.2e-06,0.0,0 STARLINK-4009,1 52624U 22052AC  23177.29789121  .00000720  00000-0  63319-4 0  9994,2 52624  53.2164  21.6787 0000403 123.6406 236.4624 15.08844297 62308,6917.867,95.437,540.011,539.453,0.0
